      2.10          N: GNSS NAV DATA                        RINEX VERSION / TYPE
fic2rin                                 01/01/2020 00:19:56 PGM / RUN BY / DATE
                                                            END OF HEADER
21 19 12 31 18  0  0.0-6.257416680455e-05 5.684341886081e-12 0.000000000000e+00
    9.300000000000e+01-9.343750000000e+00 4.970564186807e-09-2.060665645738e-01
   -4.786998033524e-07 2.474678761791e-02 3.973022103310e-06 5.153584873199e+03
    2.376000000000e+05-4.861503839493e-07-6.486212668221e-01-5.587935447693e-08
    9.513977102649e-01 3.027500000000e+02-1.383859475896e+00-8.873941063836e-09
    1.957224383395e-10 1.000000000000e+00 2.086000000000e+03 0.000000000000e+00
    2.400000000000e+00 0.000000000000e+00-1.024454832077e-08 9.300000000000e+01
    2.304000000000e+05 4.000000000000e+00
12 19 12 31 18  0  0.0 1.672981306911e-04-4.092726157978e-12 0.000000000000e+00
    9.900000000000e+01 2.859375000000e+01 4.024453348921e-09 3.379086332395e-01
    1.460313796997e-06 7.756567676552e-03 9.074807167053e-06 5.153774339676e+03
    2.376000000000e+05-7.450580596924e-08-2.610705177344e+00 7.823109626770e-08
    9.804392703167e-01 2.150937500000e+02 1.094528381900e+00-7.857112994580e-09
   -4.396611707954e-10 1.000000000000e+00 2.086000000000e+03 0.000000000000e+00
    3.400000000000e+00 0.000000000000e+00-1.257285475731e-08 9.900000000000e+01
    2.304000000000e+05 4.000000000000e+00
29 19 12 31 18  0  0.0 4.261266440153e-06-9.663381206337e-12 0.000000000000e+00
    9.500000000000e+01 7.078125000000e+01 3.890876356332e-09-2.236234367977e+00
    3.594905138016e-06 1.026953919791e-03 7.448717951775e-06 5.153648801804e+03
    2.376000000000e+05 3.725290298462e-08-1.565218821418e+00 3.166496753693e-08
    9.855888838588e-01 2.490625000000e+02 1.998044837559e+00-7.839969423338e-09
    1.171477368163e-10 1.000000000000e+00 2.086000000000e+03 0.000000000000e+00
    3.400000000000e+00 0.000000000000e+00-9.778887033463e-09 9.500000000000e+01
    2.304000000000e+05 4.000000000000e+00
17 19 12 31 18  0  0.0 1.905583776534e-04 6.821210263297e-12 0.000000000000e+00
    6.400000000000e+01 6.971875000000e+01 3.814087443480e-09-2.539174722613e+00
    3.637745976448e-06 1.345961785410e-02 6.448477506638e-06 5.153627840042e+03
    2.376000000000e+05 1.508742570877e-07-1.576727164924e+00-2.235174179077e-08
    9.840119634994e-01 2.685312500000e+02-1.669286534542e+00-7.571386807223e-09
    1.617924535908e-10 1.000000000000e+00 2.086000000000e+03 0.000000000000e+00
    2.400000000000e+00 0.000000000000e+00-1.117587089539e-08 6.400000000000e+01
    2.304000000000e+05 4.000000000000e+00
20 19 12 31 18  0  0.0 5.277330055833e-04 0.000000000000e+00 0.000000000000e+00
    6.300000000000e+01-9.206250000000e+01 5.171643991159e-09 1.180928646967e+00
   -4.785135388374e-06 5.097932182252e-03 6.945803761482e-06 5.153624912262e+03
    2.376000000000e+05 1.303851604462e-07 3.335345549958e-01 3.539025783539e-08
    9.328850173998e-01 2.298125000000e+02 2.542974523588e+00-8.404992958836e-09
   -5.964534161075e-11 1.000000000000e+00 2.086000000000e+03 0.000000000000e+00
    2.400000000000e+00 0.000000000000e+00-8.381903171539e-09 6.300000000000e+01
    2.304000000000e+05 4.000000000000e+00
28 19 12 31 18  0  0.0 7.477723993361e-04-2.046363078989e-12 0.000000000000e+00
    4.800000000000e+01 2.925000000000e+01 3.908734243042e-09-1.728363667981e+00
    1.672655344009e-06 1.893662253860e-02 8.955597877502e-06 5.153713441849e+03
    2.376000000000e+05 9.313225746155e-09-2.587997929690e+00 5.289912223816e-07
    9.797038496949e-01 2.181875000000e+02-1.424079130086e+00-7.671033815063e-09
   -4.360895934534e-10 1.000000000000e+00 2.086000000000e+03 0.000000000000e+00
    3.400000000000e+00 0.000000000000e+00-1.117587089539e-08 4.800000000000e+01
    2.304000000000e+05 4.000000000000e+00
18 19 12 31 18  0  0.0 1.104096882045e-04 2.501110429876e-12 0.000000000000e+00
    3.800000000000e+01-1.031250000000e+01 4.755198073087e-09 1.346432045168e+00
   -7.897615432739e-07 1.563786459155e-02 3.596767783165e-06 5.153653600693e+03
    2.376000000000e+05-2.291053533554e-07-6.382965074287e-01-2.719461917877e-07
    9.570319417532e-01 3.090937500000e+02 1.449770850581e+00-8.508568701753e-09
    1.157191058795e-10 1.000000000000e+00 2.086000000000e+03 0.000000000000e+00
    2.400000000000e+00 6.300000000000e+01-5.587935447693e-09 3.800000000000e+01
    2.304000000000e+05 4.000000000000e+00
 4 19 12 31 18  0  0.0-2.783956006169e-05-5.229594535194e-12 0.000000000000e+00
    1.830000000000e+02 7.750000000000e+00 4.647693595094e-09 2.921120379200e+00
    4.917383193970e-07 4.426190862432e-04 9.074807167053e-06 5.153733030319e+03
    2.376000000000e+05 1.676380634308e-08 1.540718128363e+00-4.284083843231e-08
    9.594835174255e-01 2.073437500000e+02-2.708064605006e+00-7.951045478673e-09
    3.392998474863e-10 1.000000000000e+00 2.086000000000e+03 0.000000000000e+00
    2.400000000000e+00 6.300000000000e+01-4.190951585770e-09 9.510000000000e+02
    2.305200000000e+05 4.000000000000e+00
 2 19 12 31 17 59 44.0-3.770990297198e-04-7.275957614183e-12 0.000000000000e+00
    7.100000000000e+01-2.153125000000e+01 4.548403744987e-09 1.938338273375e+00
   -1.389533281326e-06 1.965117629152e-02 2.900138497353e-06 5.153607158661e+03
    2.375840000000e+05 2.589076757431e-07-6.517131734410e-01-4.135072231293e-07
    9.575230053166e-01 3.187187500000e+02-1.682739018640e+00-8.144982128342e-09
    1.175048945505e-10 1.000000000000e+00 2.086000000000e+03 0.000000000000e+00
    2.400000000000e+00 0.000000000000e+00-1.769512891769e-08 7.100000000000e+01
    2.325000000000e+05 4.000000000000e+00
12 19 12 31 17 59 44.0 1.672990620136e-04-4.092726157978e-12 0.000000000000e+00
    3.200000000000e+01 2.859375000000e+01 4.024096191187e-09 3.355747464009e-01
    1.460313796997e-06 7.756568607874e-03 9.074807167053e-06 5.153774339676e+03
    2.375840000000e+05-7.450580596924e-08-2.610705045681e+00 7.823109626770e-08
    9.804392849459e-01 2.150937500000e+02 1.094528632059e+00-7.857112994580e-09
   -4.393040130612e-10 1.000000000000e+00 2.086000000000e+03 0.000000000000e+00
    2.400000000000e+00 0.000000000000e+00-1.257285475731e-08 3.200000000000e+01
    2.329500000000e+05 4.000000000000e+00
 2 19 12 31 19 59 44.0-3.771511837840e-04-7.275957614183e-12 0.000000000000e+00
    7.200000000000e+01-1.718750000000e+01 4.521259757188e-09 2.988541238110e+00
   -7.785856723785e-07 1.965067884885e-02 2.924352884293e-06 5.153608299255e+03
    2.447840000000e+05 2.644956111908e-07-6.517701935990e-01-1.080334186554e-07
    9.575240571547e-01 3.182500000000e+02-1.682721162262e+00-7.966046103509e-09
    4.393040130612e-11 1.000000000000e+00 2.086000000000e+03 0.000000000000e+00
    2.400000000000e+00 0.000000000000e+00-1.769512891769e-08 7.200000000000e+01
    2.376000000000e+05 4.000000000000e+00
12 19 12 31 19 59 44.0 1.672697253525e-04-4.092726157978e-12 0.000000000000e+00
    3.300000000000e+01 2.390625000000e+01 3.999452307528e-09 1.385618051182e+00
    1.128762960434e-06 7.756820530631e-03 9.190291166306e-06 5.153775465012e+03
    2.447840000000e+05-1.862645149231e-07-2.610761849328e+00 7.450580596924e-09
    9.804363371660e-01 2.139687500000e+02 1.094601167927e+00-7.797824810703e-09
   -3.868018261344e-10 1.000000000000e+00 2.086000000000e+03 0.000000000000e+00
    2.400000000000e+00 0.000000000000e+00-1.257285475731e-08 3.300000000000e+01
    2.376000000000e+05 4.000000000000e+00
 1 19 12 31 20  0  0.0-2.477252855897e-04-1.216449163621e-11 0.000000000000e+00
    7.000000000000e+01-1.365625000000e+01 4.150172871358e-09 2.698942411088e+00
   -7.562339305878e-07 9.235460544005e-03 3.883615136147e-06 5.153638669968e+03
    2.448000000000e+05-4.470348358154e-08-5.785372621020e-01-1.266598701477e-07
    9.785088299518e-01 3.141562500000e+02 7.595096643290e-01-7.989975671701e-09
    1.114332130692e-10 1.000000000000e+00 2.086000000000e+03 0.000000000000e+00
    2.400000000000e+00 0.000000000000e+00 5.587935447693e-09 7.000000000000e+01
    2.376000000000e+05 4.000000000000e+00
 3 19 12 31 20  0  0.0-6.329314783216e-05-7.275957614183e-12 0.000000000000e+00
    6.000000000000e+01-8.293750000000e+01 4.332323315798e-09 1.530503478425e+00
   -4.375353455544e-06 2.600505948067e-03 7.692724466324e-06 5.153646608353e+03
    2.448000000000e+05 3.725290298462e-09 4.624489149678e-01-9.313225746155e-09
    9.647427576597e-01 2.308125000000e+02 7.770302778357e-01-8.005690612005e-09
   -1.821504444400e-11 1.000000000000e+00 2.086000000000e+03 0.000000000000e+00
    2.400000000000e+00 0.000000000000e+00 2.328306436539e-09 6.000000000000e+01
    2.376000000000e+05 4.000000000000e+00
 7 19 12 31 20  0  0.0-1.820935867727e-04-8.299139153678e-12 0.000000000000e+00
    1.700000000000e+01 1.871875000000e+01 5.046281626456e-09 1.991706613318e+00
    8.866190910339e-07 1.322230976075e-02 6.388872861862e-06 5.153704307556e+03
    2.448000000000e+05-3.613531589508e-07 2.569001146992e+00-1.043081283569e-07
    9.540174615366e-01 2.569375000000e+02-2.420910273133e+00-8.238914612435e-09
   -2.142946405177e-11 1.000000000000e+00 2.086000000000e+03 0.000000000000e+00
    2.400000000000e+00 0.000000000000e+00-1.117587089539e-08 1.700000000000e+01
    2.376000000000e+05 4.000000000000e+00
 9 19 12 31 20  0  0.0-1.217145472765e-04-9.094947017729e-12 0.000000000000e+00
    1.200000000000e+01-2.781250000000e+00 4.809486048684e-09-8.979485572645e-01
   -1.508742570877e-07 1.715753925964e-03 9.465962648392e-06 5.153533813477e+03
    2.448000000000e+05 7.450580596924e-09 1.493893406360e+00 9.313225746155e-09
    9.521749996021e-01 1.980000000000e+02 1.700061000056e+00-8.046406593704e-09
    3.378712165495e-10 1.000000000000e+00 2.086000000000e+03 0.000000000000e+00
    2.400000000000e+00 0.000000000000e+00 1.396983861923e-09 1.200000000000e+01
    2.376000000000e+05 4.000000000000e+00
